STARLINK-30954          
1 58407U 23180F   26068.01144882  .00001304  00000+0  58272-4 0  9993
2 58407  42.9992  56.2501 0000792 248.5691 111.5076 15.26752569127529
TRANSPORTER-13 OBJECT AH
1 63241U 25052AH  26068.64880921  .00014108  00000+0  55931-3 0  9999
2 63241  97.3962 323.1443 0008070 138.7508 221.4341 15.25468797 54753
